CCSDS_OMM_VERS = 2.0
CREATION_DATE  = 
ORIGINATOR     = 

OBJECT_NAME    = CZ-2C R/B
OBJECT_ID      = 2022-132E
CENTER_NAME    = EARTH
REF_FRAME      = TEME
TIME_SYSTEM    = UTC
MEAN_ELEMENT_THEORY = SGP/SGP4

EPOCH          = 2026-01-13T12:08:50.137440
MEAN_MOTION    = 15.57111911
ECCENTRICITY   = .00171083
INCLINATION    = 97.2949
RA_OF_ASC_NODE = 15.3654
ARG_OF_PERICENTER = 299.6913
MEAN_ANOMALY   = 60.2639

EPHEMERIS_TYPE = 0
CLASSIFICATION_TYPE = U
NORAD_CAT_ID   = 54039
ELEMENT_SET_NO = 999
REV_AT_EPOCH   = 18177
BSTAR          = .30246051E-3
MEAN_MOTION_DOT = .21984E-3
MEAN_MOTION_DDOT = 0

CCSDS_OMM_VERS = 2.0
CREATION_DATE  = 
ORIGINATOR     = 

OBJECT_NAME    = GSLV R/B
OBJECT_ID      = 2022-138AN
CENTER_NAME    = EARTH
REF_FRAME      = TEME
TIME_SYSTEM    = UTC
MEAN_ELEMENT_THEORY = SGP/SGP4

EPOCH          = 2026-01-13T11:45:32.577696
MEAN_MOTION    = 14.96329714
ECCENTRICITY   = .00215714
INCLINATION    = 87.3829
RA_OF_ASC_NODE = 184.8388
ARG_OF_PERICENTER = 358.6629
MEAN_ANOMALY   = 1.4541

EPHEMERIS_TYPE = 0
CLASSIFICATION_TYPE = U
NORAD_CAT_ID   = 54149
ELEMENT_SET_NO = 999
REV_AT_EPOCH   = 17567
BSTAR          = .21309031E-3
MEAN_MOTION_DOT = .2448E-4
MEAN_MOTION_DDOT = 0

CCSDS_OMM_VERS = 2.0
CREATION_DATE  = 
ORIGINATOR     = 

OBJECT_NAME    = XRISM
OBJECT_ID      = 2023-137A
CENTER_NAME    = EARTH
REF_FRAME      = TEME
TIME_SYSTEM    = UTC
MEAN_ELEMENT_THEORY = SGP/SGP4

EPOCH          = 2026-01-13T10:05:01.634784
MEAN_MOTION    = 15.10756509
ECCENTRICITY   = .0007942
INCLINATION    = 31.0024
RA_OF_ASC_NODE = 280.9458
ARG_OF_PERICENTER = 206.8912
MEAN_ANOMALY   = 153.1316

EPHEMERIS_TYPE = 0
CLASSIFICATION_TYPE = U
NORAD_CAT_ID   = 57800
ELEMENT_SET_NO = 999
REV_AT_EPOCH   = 12942
BSTAR          = .23368E-3
MEAN_MOTION_DOT = .4071E-4
MEAN_MOTION_DDOT = 0

CCSDS_OMM_VERS = 2.0
CREATION_DATE  = 
ORIGINATOR     = 

OBJECT_NAME    = ACS3
OBJECT_ID      = 2024-077B
CENTER_NAME    = EARTH
REF_FRAME      = TEME
TIME_SYSTEM    = UTC
MEAN_ELEMENT_THEORY = SGP/SGP4

EPOCH          = 2026-01-13T13:59:20.749920
MEAN_MOTION    = 13.87103751
ECCENTRICITY   = .00594795
INCLINATION    = 97.2411
RA_OF_ASC_NODE = 327.0720
ARG_OF_PERICENTER = 257.4619
MEAN_ANOMALY   = 101.9886

EPHEMERIS_TYPE = 0
CLASSIFICATION_TYPE = U
NORAD_CAT_ID   = 59588
ELEMENT_SET_NO = 999
REV_AT_EPOCH   = 8655
BSTAR          = .78095337E-2
MEAN_MOTION_DOT = .9265E-4
MEAN_MOTION_DDOT = 0

CCSDS_OMM_VERS = 2.0
CREATION_DATE  = 
ORIGINATOR     = 

OBJECT_NAME    = SZ-21 MODULE
OBJECT_ID      = 2025-246C
CENTER_NAME    = EARTH
REF_FRAME      = TEME
TIME_SYSTEM    = UTC
MEAN_ELEMENT_THEORY = SGP/SGP4

EPOCH          = 2026-01-13T13:01:20.405856
MEAN_MOTION    = 15.64439087
ECCENTRICITY   = .00018255
INCLINATION    = 41.4739
RA_OF_ASC_NODE = 181.7676
ARG_OF_PERICENTER = 159.9707
MEAN_ANOMALY   = 200.1205

EPHEMERIS_TYPE = 0
CLASSIFICATION_TYPE = U
NORAD_CAT_ID   = 66515
ELEMENT_SET_NO = 999
REV_AT_EPOCH   = 942
BSTAR          = .22837422E-3
MEAN_MOTION_DOT = .22293E-3
MEAN_MOTION_DDOT = 0

