CZ-2C R/B               
1 54039U 22132E   26013.50613585  .00021984  00000+0  30246-3 0  9997
2 54039  97.2949  15.3654 0017108 299.6913  60.2639 15.57111911181775
GSLV R/B                
1 54149U 22138AN  26013.48996039  .00002448  00000+0  21309-3 0  9994
2 54149  87.3829 184.8388 0021571 358.6629   1.4541 14.96329714175674
XRISM                   
1 57800U 23137A   26013.42015781  .00004071  00000+0  23368-3 0  9992
2 57800  31.0024 280.9458 0007942 206.8912 153.1316 15.10756509129425
ACS3                    
1 59588U 24077B   26013.58287905  .00009265  00000+0  78095-2 0  9993
2 59588  97.2411 327.0720 0059479 257.4619 101.9886 13.87103751 86553
SZ-21 MODULE            
1 66515U 25246C   26013.54259729  .00022293  00000+0  22837-3 0  9999
2 66515  41.4739 181.7676 0001825 159.9707 200.1205 15.64439087  9425
